1 32172U 99025CTS 18211.99972907  .00000411  00000-0  69047-4 0  9991
2 32172  99.0494 289.3493 0152438 118.5858 243.0780 14.68764458591168
1 32173U 99025CTT 18211.84916730 +.00000611 +00000-0 +29072-3 0  9993
2 32173 099.6197 213.3464 0071679 227.5880 131.9217 14.22266954261042
1 32174U 99025CTU 18210.45133350 -.00000017 +00000-0 +12189-4 0  9992
2 32174 098.8250 292.0639 0159565 030.4855 330.5477 14.14755901568395
1 32175U 99025CTV 18212.51373110 -.00000034  00000-0  45058-5 0  9993
2 32175  98.8576 318.4518 0172784  54.6135 307.1025 13.81345541554980
1 32176U 99025CTW 18211.90050460 +.00000427 +00000-0 +14832-3 0  9995
2 32176 099.4171 258.6822 0064908 080.1048 280.7456 14.40058860224920
1 32177U 99025CTX 18211.75713521  .00000338  00000-0  13428-3 0  9994
2 32177  99.0747  46.5177 0074987  54.5765 306.2390 14.33914740578420
1 32178U 99025CTY 18211.00109685  .00000291  00000-0  17825-3 0  9996
2 32178 100.2713 125.5318 0110772  70.0861 291.2200 14.12151178567973
1 32179U 99025CTZ 18211.99372428  .00000225  00000-0  16070-3 0  9990
2 32179  99.2401 228.3635 0148087  81.5278 312.2007 14.02090586564901
1 32180U 99025CUA 18211.37124788 +.00000021 +00000-0 +56643-4 0  9993
2 32180 099.4745 164.4099 0138337 091.3240 058.8807 13.81699253570815
1 32181U 99025CUB 18212.52985275  .00000194  00000-0  73937-4 0  9994
2 32181  99.4739 325.0475 0094910  44.5583  13.9205 14.40867964579310
1 32182U 99025CUC 18208.26749078 +.00000992 +00000-0 +47781-3 0  9993
2 32182 098.2056 231.2713 0121926 296.0745 062.7923 14.16988913580700
1 32183U 99025CUD 18208.97746727 +.00000175 +00000-0 +13406-3 0  9990
2 32183 098.9685 282.5958 0045540 060.0595 300.5083 14.05221057348793
1 32184U 99025CUE 18210.43384048 +.00000349 +00000-0 +45965-4 0  9998
2 32184 098.2481 276.8980 0264305 029.8136 331.7831 14.65506866585923
1 32185U 99025CUF 18211.57436551 +.00000526 +00000-0 +11463-3 0  9994
2 32185 098.7344 334.3849 0481807 324.0565 032.9064 14.09068229565745
1 32186U 99025CUG 18212.16517569 -.00000093  00000-0 -37657-4 0  9995
2 32186  99.6578 188.5487 0284301 324.6807  94.6185 13.71851616552649
1 32187U 99025CUH 18212.44175353  .00000055  00000-0  11523-3 0  9997
2 32187  99.3261  28.7055 0297822  41.5834 349.1122 13.48792715544759
1 32188U 99025CUJ 18176.50398502  .00002222  00000-0  82498-3 0  9994
2 32188  99.0488 271.1769 0070082 138.9811 224.3761 14.31863522565290
1 32189U 99025CUK 18211.29288630  .00000914  00000-0  44947-3 0  9994
2 32189  99.0242 242.6305 0034941 213.9358 145.9582 14.19905938567893
1 32190U 99025CUL 18211.41650559  .00001113  00000-0  29736-3 0  9994
2 32190  98.9726  69.1789 0058622 238.0713 121.4769 14.49574040578676
1 32191U 99025CUM 18212.30909322  .00000417  00000-0  23667-3 0  9992
2 32191  98.9451 255.2438 0107608 305.3242  53.7906 14.12568489567550
1 32192U 99025CUN 18211.58426421  .00000123  00000-0  13677-3 0  9990
2 32192  98.6633 266.6007 0184627 247.1819 110.9743 13.80532681556188
1 32193U 99025CUP 18210.23104489 +.00000906 +00000-0 +44268-3 0  9998
2 32193 098.4805 351.9117 0101950 003.3408 356.8427 14.17620150566655
1 32194U 99025CUQ 18212.04792992  .00000588  00000-0  15961-3 0  9996
2 32194  99.0982 156.6785 0077466 172.3693 187.8697 14.50072796579702
1 32195U 99025CUR 18185.89655939 +.00000005 +00000-0 +30435-4 0  9996
2 32195 098.9571 218.4067 0071817 358.0719 002.0161 14.04421951561616
1 32197U 99025CUT 18212.22153160  .00000013  00000-0  21535-4 0  9995
2 32197  98.9974 356.2496 0175093 109.9536  12.4351 14.27276862573278
1 32198U 99025CUU 18176.78235619 +.00000436 +00000-0 +32797-3 0  9996
2 32198 098.3278 165.2719 0105200 056.6605 304.4577 13.96335580563747
1 32199U 99025CUV 18212.12842402  .00001470  00000-0  31266-3 0  9999
2 32199  99.1618 174.0906 0118390 318.7698  40.4600 14.56613241578075
1 32200U 99025CUW 18212.06350802  .00000191  00000-0  13945-3 0  9996
2 32200  99.0352 249.9427 0042877 310.5171  49.2266 14.07354957565639
1 32201U 99025CUX 18211.28703778  .00000447  00000-0  27885-3 0  9996
2 32201  99.1970 230.3832 0147268 126.0333 235.4584 14.04662933582635
1 32202U 99025CUY 18211.39441561  .00001321  00000-0  60434-3 0  9997
2 32202  98.3815 279.1125 0125122 115.2944 246.1257 14.18879094564307
1 32203U 99025CUZ 18211.83376161 +.00001313 +00000-0 +70361-4 0  9992
2 32203 097.0448 351.2639 0355454 174.9689 185.5255 14.75606931350037
1 32204U 99025CVA 18211.82913690 +.00002974 +00000-0 +83597-3 0  9994
2 32204 099.3393 080.1365 0128242 016.2230 344.3004 14.42061439317109
1 32205U 99025CVB 18210.92790806  .00000005  00000-0  26568-4 0  9996
2 32205  98.8711 239.1384 0011617  32.0583  86.9851 14.12389928568761
1 32207U 99025CVD 18212.53619479  .00000068  00000-0  42628-4 0  9997
2 32207  99.8349 113.1758 0091478 250.4859 234.8855 14.34350737577276
1 32208U 99025CVE 18211.89945591  .00001780  00000-0  34451-3 0  9999
2 32208  98.9536  88.8580 0033244 136.4362 223.9472 14.64428801580162
1 32209U 99025CVF 18209.70169454 +.00000807 +00000-0 +10835-2 0  9991
2 32209 099.4356 301.9928 0349945 226.4044 130.7552 13.40378870539193
1 32210U 99025CVG 18211.29136461  .00000219  00000-0  16575-3 0  9997
2 32210  99.1123 245.2042 0079205 117.8745 243.0472 14.02798238562470
1 32211U 99025CVH 18142.41698010  .00000505  00000-0  39878-3 0  9997
2 32211  98.6009 203.9363 0134363   9.3836  47.7302 13.91623935546266
1 32212U 99025CVJ 18211.82062736  .00000220  00000-0  89840-4 0  9999
2 32212  99.5818 331.4280 0152053 249.0705 266.4184 14.32812602575070
1 32213U 99025CVK 14237.28036838 +.00000396 +00000-0 +27232-3 0  9998
2 32213 099.2220 248.1361 0183412 027.9138 333.1397 13.97395130361001
1 32214U 99025CVL 18211.52604433 +.00000666 +00000-0 +65095-3 0  9993
2 32214 099.0284 330.0193 0228644 355.1056 064.9798 13.71653367253719
1 32216U 99025CVN 18211.38153018  .00000837  00000-0  31630-3 0  9995
2 32216  99.5491 262.0865 0053235 225.1357 134.5495 14.33582505572321
1 32217U 99025CVP 18211.79057472  .00000619  00000-0  23525-3 0  9990
2 32217  99.1370  69.3186 0051871  60.8113 299.8245 14.34051123572647
1 32218U 99025CVQ 18212.05823007  .00000193  00000-0  76418-4 0  9993
2 32218  98.6345 310.6512 0084982 183.1608 303.1943 14.37672004575957
1 32219U 99025CVR 10291.26267109 +.00000828 +00000-0 +38835-3 0  9996
2 32219 098.8394 293.4115 0086757 273.6268 090.0703 14.20944452167235
1 32220U 99025CVS 14321.03979087 +.00001588 +00000-0 +10801-2 0  9992
2 32220 099.2673 257.6674 0228324 031.3800 330.0753 13.89663064369825
1 32221U 99025CVT 18211.05326644 +.00000063 +00000-0 +24332-4 0  9995
2 32221 098.3749 306.4648 0164769 120.6922 241.0626 14.51285388580928
1 32222U 99025CVU 18211.60639258 +.00000498 +00000-0 +23427-3 0  9990
2 32222 099.1246 346.6962 0103592 104.7482 256.5201 14.21778535260558
1 32223U 99025CVV 18212.41684294  .00000255  00000-0  17272-3 0  9993
2 32223  99.0080 269.8836 0056010   5.4279  50.9823 14.08411799563916
1 32224U 99025CVW 18212.46203605  .00000050  00000-0  36984-4 0  9997
2 32224  99.0878  34.3178 0080478 335.9678  23.7755 14.29906449573776
1 32225U 99025CVX 18211.11426680  .00000052  00000-0  52965-4 0  9998
2 32225  99.0529 169.2956 0073211 196.2213 163.6613 14.11021117566086
1 32226U 99025CVY 18211.46059522 +.00006055 +00000-0 +63929-3 0  9994
2 32226 099.4736 035.0556 0030961 141.0093 219.3359 14.89404372588001
1 32227U 99025CVZ 18211.35325112 +.00000444 +00000-0 +62962-4 0  9997
2 32227 099.4852 170.7063 0143282 215.1689 303.8925 14.77207034594004
1 32228U 99025CWA 18212.37056044  .00000530  00000-0  15420-3 0  9998
2 32228  98.6382 276.1199 0094344  70.2838 290.8500 14.45939849582399
1 32230U 99025CWC 18212.41728274  .00000490  00000-0  23643-3 0  9998
2 32230  98.8886 282.0544 0088784   7.9466  49.7052 14.21226760572676
1 32232U 99025CWE 18208.71492899 +.00002202 +00000-0 +50653-3 0  9993
2 32232 097.0688 186.2699 0119443 184.1937 175.8273 14.51883313577557
1 32233U 99025CWF 18211.91697289 +.00000224 +00000-0 +13078-3 0  9992
2 32233 097.6642 263.3753 0261448 355.1991 004.6676 14.00072310564187
1 32234U 99025CWG 18212.54747464  .00000354  00000-0  31056-3 0  9994
2 32234  98.5402 242.4238 0147188 171.2401 189.1378 13.86451607560126
1 32235U 99025CWH 18212.27173905  .00000853  00000-0  14673-3 0  9998
2 32235  99.0637 235.2914 0113852 237.1646 184.1120 14.67725919603980
1 32238U 99025CWL 18211.75728242  .00000531  00000-0  39550-4 0  9998
2 32238  98.8935 321.7737 0143241 358.3324   1.7400 15.01007502600611
1 32241U 99025CWP 18212.08999271  .00000370  00000-0  19687-3 0  9990
2 32241  98.9695 157.9604 0179156 299.9436  58.4051 14.11719882570381
1 32242U 99025CWQ 18210.19444852 +.00000188 +00000-0 +19431-3 0  9995
2 32242 097.2742 341.9135 0170866 310.8703 047.7753 13.78214012556583
1 32243U 99025CWR 18211.68821849  .00000510  00000-0  30811-3 0  9990
2 32243  98.3182 117.3330 0323678  65.4460 298.0073 13.86930926561681
1 32245U 99025CWT 18210.46709256 +.00000234 +00000-0 +68858-4 0  9990
2 32245 098.5030 305.7456 0154272 293.0150 065.4834 14.46776585582642
1 32303U 99025CWU 18212.18921974  .00001394  00000-0  89274-3 0  9991
2 32303  97.8421 332.2625 0126998 168.7511 191.6544 14.00766742548555
1 32304U 99025CWV 18137.23148543  .00000369  00000-0  14659-3 0  9993
2 32304  99.4362 154.2075 0063569 344.4598  15.4631 14.34330668565078
1 32305U 99025CWW 18210.28540335 +.00001113 +00000-0 +67484-3 0  9998
2 32305 098.0010 025.3249 0217118 230.0659 128.1252 13.97072539546634
1 32308U 99025CWZ 18208.66635415 +.00000398 +00000-0 +30894-3 0  9993
2 32308 097.7760 279.7493 0122163 168.7822 191.6111 13.93568194277841
1 32311U 99025CXC 18211.76141541 +.00000248 +00000-0 +43646-3 0  9997
2 32311 101.7511 054.5387 0427825 289.0934 066.4325 13.24463680244219
1 32312U 99025CXD 18178.59522054 +.00000568 +00000-0 +46170-3 0  9993
2 32312 098.7648 309.2774 0136812 254.0450 166.6643 13.89668919568795
1 32313U 99025CXE 18212.36294781  .00000729  00000-0  52818-3 0  9996
2 32313  99.1916 263.4203 0145721 257.2096 101.2747 13.94867578559627
